NORAD_CAT_ID,OBJECT_NAME,OBJECT_TYPE,EPOCH,MEAN_MOTION,ECCENTRICITY,INCLINATION,RA_OF_ASC_NODE,ARG_OF_PERICENTER,MEAN_ANOMALY,BSTAR,MEAN_MOTION_DOT,MEAN_MOTION_DDOT,TLE_LINE0,TLE_LINE1,TLE_LINE2,SEMIMAJOR_AXIS,PERIOD,APOGEE,PERIGEE,DECAYED
51893.0,STARLINK-3579,PAYLOAD,2023-06-10 07:58:18,15.08839116,8.05e-05,53.2157,183.3682,71.2134,288.8945,3.3882e-05,2.52e-06,0.0,0 STARLINK-3579,1 51893U 22022AT  23161.33215832  .00000252  00000-0  33882-4 0  9991,2 51893  53.2157 183.3682 0000805  71.2134 288.8945 15.08839116 71838,6917.883,95.438,540.305,539.191,0.0
51893.0,STARLINK-3579,PAYLOAD,2023-06-11 03:02:56,15.0883915,7.96e-05,53.2159,179.7995,71.3011,288.8068,2.4929e-05,1.09e-06,0.0,0 STARLINK-3579,1 51893U 22022AT  23162.12703889  .00000109  00000-0  24929-4 0  9996,2 51893  53.2159 179.7995 0000796  71.3011 288.8068 15.08839150 71957,6917.883,95.438,540.299,539.197,0.0
51893.0,STARLINK-3579,PAYLOAD,2023-06-11 07:49:05,15.08840478,7.95e-05,53.2158,178.9072,71.8929,288.2149,3.371e-05,2.49e-06,0.0,0 STARLINK-3579,1 51893U 22022AT  23162.32575766  .00000249  00000-0  33710-4 0  9992,2 51893  53.2158 178.9072 0000795  71.8929 288.2149 15.08840478 71987,6917.879,95.438,540.294,539.194,0.0
51893.0,STARLINK-3579,PAYLOAD,2023-06-11 20:32:10,15.08837247,7.71e-05,53.2161,176.5288,70.4262,289.6814,4.4498e-05,4.21e-06,0.0,0 STARLINK-3579,1 51893U 22022AT  23162.85567950  .00000421  00000-0  44498-4 0  9993,2 51893  53.2161 176.5288 0000771  70.4262 289.6814 15.08837247 72067,6917.889,95.438,540.287,539.22,0.0
51893.0,STARLINK-3579,PAYLOAD,2023-06-12 07:39:52,15.08836312,7.85e-05,53.216,174.4473,69.2289,290.8787,3.2345e-05,2.27e-06,0.0,0 STARLINK-3579,1 51893U 22022AT  23163.31936146  .00000227  00000-0  32345-4 0  9994,2 51893  53.2160 174.4473 0000785  69.2289 290.8787 15.08836312 72132,6917.892,95.438,540.3,539.214,0.0
51893.0,STARLINK-3579,PAYLOAD,2023-06-12 17:12:11,15.08836765,7.97e-05,53.216,172.6631,67.4833,292.6244,2.3817e-05,9.1e-07,0.0,0 STARLINK-3579,1 51893U 22022AT  23163.71680217  .00000091  00000-0  23817-4 0  9996,2 51893  53.2160 172.6631 0000797  67.4833 292.6244 15.08836765 72192,6917.89,95.438,540.307,539.204,0.0
51893.0,STARLINK-3579,PAYLOAD,2023-06-13 01:09:07,15.08835668,8.3e-05,53.2159,171.1762,69.0062,291.1019,1.854e-05,7e-08,0.0,0 STARLINK-3579,1 51893U 22022AT  23164.04800388  .00000007  00000-0  18540-4 0  9990,2 51893  53.2159 171.1762 0000830  69.0062 291.1019 15.08835668 72240,6917.894,95.438,540.333,539.184,0.0
51893.0,STARLINK-3579,PAYLOAD,2023-06-13 17:02:58,15.08836986,8.84e-05,53.216,168.2027,68.0924,292.0162,2.5815e-05,1.23e-06,0.0,0 STARLINK-3579,1 51893U 22022AT  23164.71040406  .00000123  00000-0  25815-4 0  9993,2 51893  53.2160 168.2027 0000884  68.0924 292.0162 15.08836986 72342,6917.89,95.438,540.366,539.143,0.0
51893.0,STARLINK-3579,PAYLOAD,2023-06-14 00:59:54,15.08835327,8.89e-05,53.216,166.7159,68.9768,291.1319,4.1284e-05,3.69e-06,0.0,0 STARLINK-3579,1 51893U 22022AT  23165.04160528  .00000369  00000-0  41284-4 0  9998,2 51893  53.2160 166.7159 0000889  68.9768 291.1319 15.08835327 72398,6917.895,95.438,540.375,539.145,0.0
51893.0,STARLINK-3579,PAYLOAD,2023-06-14 16:53:46,15.08836714,9.05e-05,53.216,163.7424,68.5584,291.5504,3.7507e-05,3.09e-06,0.0,0 STARLINK-3579,1 51893U 22022AT  23165.70400629  .00000309  00000-0  37507-4 0  9997,2 51893  53.2160 163.7424 0000905  68.5584 291.5504 15.08836714 72493,6917.89,95.438,540.382,539.129,0.0
51893.0,STARLINK-3579,PAYLOAD,2023-06-14 23:15:18,15.08833928,9.1e-05,53.2164,162.5528,72.3061,287.803,1.6748e-05,-2.1e-07,0.0,0 STARLINK-3579,1 51893U 22022AT  23165.96896938 -.00000021  00000-0  16748-4 0  9993,2 51893  53.2164 162.5528 0000910  72.3061 287.8030 15.08833928 72539,6917.899,95.438,540.393,539.134,0.0
51893.0,STARLINK-3579,PAYLOAD,2023-06-15 08:47:37,15.08835398,9.35e-05,53.2164,160.7686,72.5153,287.5941,2.8321e-05,1.63e-06,0.0,0 STARLINK-3579,1 51893U 22022AT  23166.36640945  .00000163  00000-0  28321-4 0  9999,2 51893  53.2164 160.7686 0000935  72.5153 287.5941 15.08835398 72592,6917.894,95.438,540.406,539.113,0.0
51893.0,STARLINK-3579,PAYLOAD,2023-06-15 16:44:33,15.08837073,9.42e-05,53.2165,159.2819,72.1574,287.9521,3.9545e-05,3.42e-06,0.0,0 STARLINK-3579,1 51893U 22022AT  23166.69760889  .00000342  00000-0  39545-4 0  9994,2 51893  53.2165 159.2819 0000942  72.1574 287.9521 15.08837073 72641,6917.889,95.438,540.406,539.103,0.0
51893.0,STARLINK-3579,PAYLOAD,2023-06-15 23:06:05,15.0884,9.55e-05,53.2165,158.0925,71.601,288.5086,5.3529e-05,5.64e-06,0.0,0 STARLINK-3579,1 51893U 22022AT  23166.96256687  .00000564  00000-0  53529-4 0  9994,2 51893  53.2165 158.0925 0000955  71.6010 288.5086 15.08840000 72680,6917.88,95.438,540.406,539.085,0.0
51893.0,STARLINK-3579,PAYLOAD,2023-06-16 08:38:24,15.0884457,9.77e-05,53.2164,156.3077,72.2384,287.8715,8.4383e-05,1.056e-05,0.0,0 STARLINK-3579,1 51893U 22022AT  23167.36000288  .00001056  00000-0  84383-4 0  9992,2 51893  53.2164 156.3077 0000977  72.2384 287.8715 15.08844570 72747,6917.866,95.437,540.407,539.056,0.0
51893.0,STARLINK-3579,PAYLOAD,2023-06-16 16:35:20,15.08839152,0.0001016,53.2165,154.8211,71.8307,288.2795,4.8764e-05,4.88e-06,0.0,0 STARLINK-3579,1 51893U 22022AT  23167.69120711  .00000488  00000-0  48764-4 0  9993,2 51893  53.2165 154.8211 0001016  71.8307 288.2795 15.08839152 72794,6917.883,95.438,540.451,539.045,0.0
51893.0,STARLINK-3579,PAYLOAD,2023-06-16 22:56:53,15.08834275,0.0001036,53.2163,153.6321,72.3422,287.7683,2.2868e-05,7.6e-07,0.0,0 STARLINK-3579,1 51893U 22022AT  23167.95617147  .00000076  00000-0  22868-4 0  9996,2 51893  53.2163 153.6321 0001036  72.3422 287.7683 15.08834275 72833,6917.898,95.438,540.48,539.046,0.0
51893.0,STARLINK-3579,PAYLOAD,2023-06-17 05:18:25,15.08839516,0.0001034,53.2163,152.4427,73.2599,286.8506,6.3017e-05,7.15e-06,0.0,0 STARLINK-3579,1 51893U 22022AT  23168.22112736  .00000715  00000-0  63017-4 0  9992,2 51893  53.2163 152.4427 0001034  73.2599 286.8506 15.08839516 72871,6917.882,95.438,540.462,539.032,0.0
51893.0,STARLINK-3579,PAYLOAD,2023-06-18 08:19:58,15.08844102,0.0001012,53.2163,147.3856,82.9349,277.1758,3.8323e-05,3.22e-06,0.0,0 STARLINK-3579,1 51893U 22022AT  23169.34720418  .00000322  00000-0  38323-4 0  9994,2 51893  53.2163 147.3856 0001012  82.9349 277.1758 15.08844102 73045,6917.868,95.437,540.433,539.033,0.0
51893.0,STARLINK-3579,PAYLOAD,2023-06-19 08:10:46,15.0883397,0.0001002,53.2165,142.9261,81.7575,278.353,-9.1503e-06,-4.33e-06,0.0,0 STARLINK-3579,1 51893U 22022AT  23170.34081161 -.00000433  00000-0 -91503-5 0  9996,2 51893  53.2165 142.9261 0001002  81.7575 278.3530 15.08833970 73193,6917.899,95.438,540.457,539.071,0.0
51893.0,STARLINK-3579,PAYLOAD,2023-06-20 04:50:47,15.08833716,0.0001065,53.2166,139.0609,88.1428,271.9686,-3.0539e-05,-7.74e-06,0.0,0 STARLINK-3579,1 51893U 22022AT  23171.20193693 -.00000774  00000-0 -30539-4 0  9995,2 51893  53.2166 139.0609 0001065  88.1428 271.9686 15.08833716 73328,6917.9,95.438,540.501,539.028,0.0
51893.0,STARLINK-3579,PAYLOAD,2023-06-20 14:23:06,15.08837182,0.0001091,53.2167,137.2769,87.1942,272.9175,-3.167e-05,-7.92e-06,0.0,0 STARLINK-3579,1 51893U 22022AT  23171.59937607 -.00000792  00000-0 -31670-4 0  9995,2 51893  53.2167 137.2769 0001091  87.1942 272.9175 15.08837182 73386,6917.889,95.438,540.509,538.999,0.0
51893.0,STARLINK-3579,PAYLOAD,2023-06-21 01:30:47,15.08847509,9.03e-05,53.2161,135.1929,77.2637,282.8456,6.3674e-06,-1.86e-06,0.0,0 STARLINK-3579,1 51893U 22022AT  23172.06304965 -.00000186  00000-0  63674-5 0  9999,2 51893  53.2161 135.1929 0000903  77.2637 282.8456 15.08847509 73451,6917.857,95.437,540.347,539.098,0.0
51893.0,STARLINK-3579,PAYLOAD,2023-06-21 03:06:10,15.08851432,9.75e-05,53.2158,134.8956,81.5844,278.5259,-1.3187e-05,-4.98e-06,0.0,0 STARLINK-3579,1 51893U 22022AT  23172.12928805 -.00000498  00000-0 -13187-4 0  9991,2 51893  53.2158 134.8956 0000975  81.5844 278.5259 15.08851432 73464,6917.845,95.437,540.385,539.036,0.0
51893.0,STARLINK-3579,PAYLOAD,2023-06-21 14:13:52,15.08840308,9.7e-05,53.216,132.8143,78.4326,281.6775,0.00015122,2.12e-05,0.0,0 STARLINK-3579,1 51893U 22022AT  23172.59296904  .00002120  00000-0  15122-3 0  9992,2 51893  53.2160 132.8143 0000970  78.4326 281.6775 15.08840308 73534,6917.879,95.438,540.415,539.073,0.0
51893.0,STARLINK-3579,PAYLOAD,2023-06-22 02:56:58,15.08830906,0.0001048,53.2167,130.4384,91.5133,268.5979,4.0608e-05,3.58e-06,0.0,0 STARLINK-3579,1 51893U 22022AT  23173.12290102  .00000358  00000-0  40608-4 0  9995,2 51893  53.2167 130.4384 0001048  91.5133 268.5979 15.08830906 73613,6917.908,95.438,540.498,539.048,0.0
51893.0,STARLINK-3579,PAYLOAD,2023-06-22 14:04:40,15.08837597,0.0001046,53.2171,128.3574,90.6989,269.4123,6.6802e-05,7.75e-06,0.0,0 STARLINK-3579,1 51893U 22022AT  23173.58657787  .00000775  00000-0  66802-4 0  9998,2 51893  53.2171 128.3574 0001046  90.6989 269.4123 15.08837597 73683,6917.888,95.438,540.476,539.029,0.0
51893.0,STARLINK-3579,PAYLOAD,2023-06-23 01:12:21,15.0884764,0.0001144,53.2178,126.2762,93.0883,267.024,3.9863e-05,3.47e-06,0.0,0 STARLINK-3579,1 51893U 22022AT  23174.05025188  .00000347  00000-0  39863-4 0  9997,2 51893  53.2178 126.2762 0001144  93.0883 267.0240 15.08847640 73757,6917.857,95.437,540.513,538.931,0.0
51893.0,STARLINK-3579,PAYLOAD,2023-06-24 02:38:32,15.0883272,0.000106,53.2166,121.5175,88.2123,271.899,5.3404e-05,5.62e-06,0.0,0 STARLINK-3579,1 51893U 22022AT  23175.11010128  .00000562  00000-0  53404-4 0  9999,2 51893  53.2166 121.5175 0001060  88.2123 271.8990 15.08832720 73916,6917.903,95.438,540.501,539.034,0.0
51893.0,STARLINK-3579,PAYLOAD,2023-06-25 02:29:19,15.08843877,0.0001177,53.2167,117.0565,87.452,272.6607,7.0809e-05,8.39e-06,0.0,0 STARLINK-3579,1 51893U 22022AT  23176.10369629  .00000839  00000-0  70809-4 0  9997,2 51893  53.2167 117.0565 0001177  87.4520 272.6607 15.08843877 74067,6917.869,95.437,540.548,538.919,0.0
